NORAD_CAT_ID,OBJECT_NAME,OBJECT_TYPE,EPOCH,MEAN_MOTION,ECCENTRICITY,INCLINATION,RA_OF_ASC_NODE,ARG_OF_PERICENTER,MEAN_ANOMALY,BSTAR,MEAN_MOTION_DOT,MEAN_MOTION_DDOT,TLE_LINE0,TLE_LINE1,TLE_LINE2,SEMIMAJOR_AXIS,PERIOD,APOGEE,PERIGEE,DECAYED
49437.0,STARLINK-3130,PAYLOAD,2024-05-06 00:39:30,15.0885475,0.0001484,53.2187,348.8201,87.7184,272.3978,0.00022806,3.345e-05,0.0,0 STARLINK-3130,1 49437U 21104AF  24127.02743274  .00003345  00000-0  22806-3 0  9996,2 49437  53.2187 348.8201 0001484  87.7184 272.3978 15.08854750137364,6917.835,95.437,540.727,538.674,0.0
49437.0,STARLINK-3130,PAYLOAD,2024-05-06 21:19:31,15.08845774,0.0001298,53.2174,344.9546,93.216,266.8981,0.00027944,4.163e-05,0.0,0 STARLINK-3130,1 49437U 21104AF  24127.88855949  .00004163  00000-0  27944-3 0  9990,2 49437  53.2174 344.9546 0001298  93.2160 266.8981 15.08845774138569,6917.863,95.437,540.626,538.83,0.0
49437.0,STARLINK-3130,PAYLOAD,2024-05-07 06:51:50,15.08844659,0.0001229,53.2167,343.1688,89.7375,270.3758,0.00021647,3.159e-05,0.0,0 STARLINK-3130,1 49437U 21104AF  24128.28599976  .00003159  00000-0  21647-3 0  9998,2 49437  53.2167 343.1688 0001229  89.7375 270.3758 15.08844659137552,6917.866,95.437,540.581,538.881,0.0
49437.0,STARLINK-3130,PAYLOAD,2024-05-07 21:10:19,15.08832051,0.0001409,53.2179,340.4934,97.538,262.5773,-0.00013046,-2.363e-05,0.0,0 STARLINK-3130,1 49437U 21104AF  24128.88216695 -.00002363  00000-0 -13046-3 0  9990,2 49437  53.2179 340.4934 0001409  97.5380 262.5773 15.08832051138714,6917.905,95.438,540.744,538.795,0.0
49437.0,STARLINK-3130,PAYLOAD,2024-05-08 06:42:38,15.08834994,0.0001394,53.218,338.7112,96.1544,263.9607,-3.1273e-05,-7.86e-06,0.0,0 STARLINK-3130,1 49437U 21104AF  24129.27960751 -.00000786  00000-0 -31273-4 0  9993,2 49437  53.2180 338.7112 0001394  96.1544 263.9607 15.08834994137701,6917.896,95.438,540.725,538.796,0.0
49437.0,STARLINK-3130,PAYLOAD,2024-05-08 21:01:06,15.08843221,0.0001245,53.217,336.0351,100.3267,259.7865,0.00018367,2.637e-05,0.0,0 STARLINK-3130,1 49437U 21104AF  24129.87576679  .00002637  00000-0  18367-3 0  9994,2 49437  53.2170 336.0351 0001245 100.3267 259.7865 15.08843221138861,6917.871,95.437,540.597,538.874,0.0
49437.0,STARLINK-3130,PAYLOAD,2024-05-09 06:33:25,15.08844712,0.0001212,53.2167,334.251,99.6536,260.4593,0.0002749,4.09e-05,0.0,0 STARLINK-3130,1 49437U 21104AF  24130.27320777  .00004090  00000-0  27490-3 0  9998,2 49437  53.2167 334.2510 0001212  99.6536 260.4593 15.08844712137858,6917.866,95.437,540.569,538.893,0.0
49437.0,STARLINK-3130,PAYLOAD,2024-05-09 20:51:53,15.08855469,0.0001292,53.2165,331.5731,113.1163,246.9965,0.00042465,6.48e-05,0.0,0 STARLINK-3130,1 49437U 21104AF  24130.86936388  .00006480  00000-0  42465-3 0  9998,2 49437  53.2165 331.5731 0001292 113.1163 246.9965 15.08855469137940,6917.833,95.437,540.592,538.804,0.0
49437.0,STARLINK-3130,PAYLOAD,2024-05-10 00:02:39,15.08859088,0.0001129,53.2165,330.9753,102.1224,257.9895,0.00058555,9.048e-05,0.0,0 STARLINK-3130,1 49437U 21104AF  24131.00184250  .00009048  00000-0  58555-3 0  9998,2 49437  53.2165 330.9753 0001129 102.1224 257.9895 15.08859088139039,6917.822,95.436,540.468,538.906,0.0
49437.0,STARLINK-3130,PAYLOAD,2024-05-10 12:45:44,15.08842319,0.0001517,53.2169,328.6011,67.0677,293.0476,0.00011059,1.473e-05,0.0,0 STARLINK-3130,1 49437U 21104AF  24131.53176864  .00001473  00000-0  11059-3 0  9990,2 49437  53.2169 328.6011 0001517  67.0677 293.0476 15.08842319139110,6917.873,95.437,540.788,538.689,0.0
49437.0,STARLINK-3130,PAYLOAD,2024-05-10 20:42:40,15.08847159,0.0001385,53.2177,327.114,67.3419,292.772,0.0002768,4.121e-05,0.0,0 STARLINK-3130,1 49437U 21104AF  24131.86296797  .00004121  00000-0  27680-3 0  9994,2 49437  53.2177 327.1140 0001385  67.3419 292.7720 15.08847159138097,6917.859,95.437,540.682,538.765,0.0
49437.0,STARLINK-3130,PAYLOAD,2024-05-11 12:36:29,15.08903862,0.0001077,53.2166,324.1401,64.3675,295.7428,0.001391,0.00021958,0.0,0 STARLINK-3130,1 49437U 21104AF  24132.52533984  .00021958  00000-0  13910-2 0  9997,2 49437  53.2166 324.1401 0001077  64.3675 295.7428 15.08903862139263,6917.685,95.434,540.295,538.805,0.0
49437.0,STARLINK-3130,PAYLOAD,2024-05-11 18:58:02,15.08806207,9.19e-05,53.218,322.9497,72.7292,287.3801,-0.0019204,-0.00030692,0.0,0 STARLINK-3130,1 49437U 21104AF  24132.79030943 -.00030692  00000-0 -19204-2 0  9992,2 49437  53.2180 322.9497 0000919  72.7292 287.3801 15.08806207139304,6917.984,95.44,540.484,539.213,0.0
49437.0,STARLINK-3130,PAYLOAD,2024-05-12 06:05:48,15.08750423,0.0001296,53.2178,320.8671,94.9969,265.1171,-0.0019645,-0.0003134,0.0,0 STARLINK-3130,1 49437U 21104AF  24133.25403206 -.00031340  00000-0 -19645-2 0  9990,2 49437  53.2178 320.8671 0001296  94.9969 265.1171 15.08750423139377,6918.154,95.443,540.916,539.123,0.0
49437.0,STARLINK-3130,PAYLOAD,2024-05-12 18:48:55,15.08789179,0.0001318,53.2177,318.488,93.4253,266.689,0.0032548,0.00051821,0.0,0 STARLINK-3130,1 49437U 21104AF  24133.78398059  .00051821  00000-0  32548-2 0  9998,2 49437  53.2177 318.4880 0001318  93.4253 266.6890 15.08789179139459,6918.036,95.441,540.813,538.989,0.0
49437.0,STARLINK-3130,PAYLOAD,2024-05-13 12:18:10,15.08868064,0.0002004,53.2166,315.213,103.7603,256.3612,0.0025704,0.0004089,0.0,0 STARLINK-3130,1 49437U 21104AF  24134.51261923  .00040890  00000-0  25704-2 0  9999,2 49437  53.2166 315.2130 0002004 103.7603 256.3612 15.08868064138499,6917.795,95.436,541.046,538.273,0.0
49437.0,STARLINK-3130,PAYLOAD,2024-05-13 18:39:42,15.08875358,0.0001184,53.2178,314.0286,79.3879,280.7247,0.001757,0.00027812,0.0,0 STARLINK-3130,1 49437U 21104AF  24134.77757420  .00027812  00000-0  17570-2 0  9990,2 49437  53.2178 314.0286 0001184  79.3879 280.7247 15.08875358138536,6917.772,95.435,540.456,538.818,0.0
49437.0,STARLINK-3130,PAYLOAD,2024-05-14 12:08:54,15.08900798,0.0001247,53.2157,310.7561,79.6642,280.4491,0.0013491,0.00021284,0.0,0 STARLINK-3130,1 49437U 21104AF  24135.50619186  .00021284  00000-0  13491-2 0  9993,2 49437  53.2157 310.7561 0001247  79.6642 280.4491 15.08900798139719,6917.695,95.434,540.422,538.697,0.0
49437.0,STARLINK-3130,PAYLOAD,2024-05-14 18:30:26,15.08910467,0.000128,53.216,309.5674,78.3027,281.8109,0.0014725,0.0002327,0.0,0 STARLINK-3130,1 49437U 21104AF  24135.77114087  .00023270  00000-0  14725-2 0  9990,2 49437  53.2160 309.5674 0001280  78.3027 281.8109 15.08910467138684,6917.665,95.433,540.415,538.645,0.0
49437.0,STARLINK-3130,PAYLOAD,2024-05-15 04:02:43,15.08914635,0.0001516,53.2121,307.7799,310.0286,50.0573,0.0010029,0.00015742,0.0,0 STARLINK-3130,1 49437U 21104AF  24136.16856243  .00015742  00000-0  10029-2 0  9999,2 49437  53.2121 307.7799 0001516 310.0286  50.0573 15.08914635139812,6917.652,95.433,540.566,538.469,0.0
49437.0,STARLINK-3130,PAYLOAD,2024-05-15 11:59:39,15.08859171,9.88e-05,53.2096,306.2911,51.9186,308.1895,-0.00056132,-9.215e-05,0.0,0 STARLINK-3130,1 49437U 21104AF  24136.49976790 -.00009215  00000-0 -56132-3 0  9991,2 49437  53.2096 306.2911 0000988  51.9186 308.1895 15.08859171139867,6917.822,95.436,540.37,539.003,0.0
49437.0,STARLINK-3130,PAYLOAD,2024-05-15 18:21:11,15.08884473,0.0001204,53.2186,305.107,91.6074,268.5056,0.00061677,9.553e-05,0.0,0 STARLINK-3130,1 49437U 21104AF  24136.76472087  .00009553  00000-0  61677-3 0  9994,2 49437  53.2186 305.1070 0001204  91.6074 268.5056 15.08884473139906,6917.744,95.435,540.442,538.777,0.0
49437.0,STARLINK-3130,PAYLOAD,2024-05-16 03:53:30,15.08860572,0.0001455,53.2159,303.3216,48.8402,311.2716,0.0012704,0.0002,0.0,0 STARLINK-3130,1 49437U 21104AF  24137.16216036  .00020000  00000-0  12704-2 0  9995,2 49437  53.2159 303.3216 0001455  48.8402 311.2716 15.08860572139964,6917.818,95.436,540.689,538.676,0.0
49437.0,STARLINK-3130,PAYLOAD,2024-05-16 11:50:26,15.08833313,9.54e-05,53.2162,301.8317,32.1912,327.9138,-0.00024281,-4.149e-05,0.0,0 STARLINK-3130,1 49437U 21104AF  24137.49336230 -.00004149  00000-0 -24281-3 0  9992,2 49437  53.2162 301.8317 0000954  32.1912 327.9138 15.08833313140011,6917.901,95.438,540.426,539.106,0.0
49437.0,STARLINK-3130,PAYLOAD,2024-05-16 18:11:58,15.08851334,0.000133,53.2156,300.6416,349.0576,11.0387,0.00092108,0.00014406,0.0,0 STARLINK-3130,1 49437U 21104AF  24137.75832111  .00014406  00000-0  92108-3 0  9998,2 49437  53.2156 300.6416 0001330 349.0576  11.0387 15.08851334140050,6917.846,95.437,540.631,538.791,0.0
49437.0,STARLINK-3130,PAYLOAD,2024-05-17 03:44:18,15.08811029,0.0002732,53.2166,298.8596,82.463,277.6673,-0.00042052,-6.97e-05,0.0,0 STARLINK-3130,1 49437U 21104AF  24138.15577515 -.00006970  00000-0 -42052-3 0  9999,2 49437  53.2166 298.8596 0002732  82.4630 277.6673 15.08811029140116,6917.969,95.439,541.724,537.944,0.0
49437.0,STARLINK-3130,PAYLOAD,2024-05-18 03:35:07,15.0883874,0.000289,53.2179,294.4036,85.4807,274.6515,0.0011833,0.00018594,0.0,0 STARLINK-3130,1 49437U 21104AF  24139.14938768  .00018594  00000-0  11833-2 0  9995,2 49437  53.2179 294.4036 0002890  85.4807 274.6515 15.08838740140262,6917.884,95.438,541.749,537.75,0.0
49437.0,STARLINK-3130,PAYLOAD,2024-05-18 14:42:47,15.08871013,9.08e-05,53.2149,292.3181,101.1925,258.9169,0.001543,0.00024375,0.0,0 STARLINK-3130,1 49437U 21104AF  24139.61305150  .00024375  00000-0  15430-2 0  9991,2 49437  53.2149 292.3181 0000908 101.1925 258.9169 15.08871013139260,6917.786,95.436,540.279,539.022,0.0
49437.0,STARLINK-3130,PAYLOAD,2024-05-18 17:53:33,15.08889658,0.000118,53.2161,291.7249,94.4681,265.6446,0.002379,0.00037829,0.0,0 STARLINK-3130,1 49437U 21104AF  24139.74552590  .00037829  00000-0  23790-2 0  9993,2 49437  53.2161 291.7249 0001180  94.4681 265.6446 15.08889658140357,6917.729,95.434,540.41,538.777,0.0
49437.0,STARLINK-3130,PAYLOAD,2024-05-19 03:25:52,15.08850407,0.000207,53.2158,289.9396,70.9285,289.1931,0.00038365,5.825e-05,0.0,0 STARLINK-3130,1 49437U 21104AF  24140.14297162  .00005825  00000-0  38365-3 0  9996,2 49437  53.2158 289.9396 0002070  70.9285 289.1931 15.08850407140410,6917.849,95.437,541.146,538.282,0.0
